IRIDIUM 126             
1 42809U 17039G   25328.37804707  .00000366  00000+0  12349-3 0  9995
2 42809  86.3962  79.2612 0001954  91.4964 268.6456 14.34220203440598
IRIDIUM 124             
1 42810U 17039H   25328.17979921  .00000413  00000+0  11675-3 0  9990
2 42810  86.4512  16.0669 0002082  98.8919 261.2517 14.43277047445542
IRIDIUM 128             
1 42811U 17039J   25328.43854516  .00000350  00000+0  11807-3 0  9999
2 42811  86.3949 110.7696 0002129 106.5534 253.5896 14.34214631440639
IRIDIUM 121             
1 42812U 17039K   25328.39707125  .00000204  00000+0  65706-4 0  9994
2 42812  86.3964  79.2797 0002267  99.8108 260.3344 14.34217536440475
IRIDIUM 133             
1 42955U 17061A   25328.40049477  .00000094  00000+0  26670-4 0  9992
2 42955  86.3950 110.8983 0002062  95.8884 264.2547 14.34218075425422
IRIDIUM 100             
1 42956U 17061B   25328.39415086  .00000361  00000+0  12184-3 0  9995
2 42956  86.3944 110.8238 0002014  96.1067 264.0359 14.34217177425424
IRIDIUM 122             
1 42957U 17061C   25328.36243177  .00000128  00000+0  38742-4 0  9993
2 42957  86.3947 110.8369 0002000  95.4496 264.6928 14.34215560425428
IRIDIUM 129             
1 42958U 17061D   25328.38780845  .00000177  00000+0  56146-4 0  9996
2 42958  86.3947 110.8911 0002259  83.4886 276.6567 14.34217446425447
